{
    "links": {
        "self": "http://www.neowsapp.com/rest/v1/neo/3989219?api_key=iIulBulltgU6a56xZRHN4H3l9WmuAYTsLGpBGhQ2"
    },
    "id": "3989219",
    "neo_reference_id": "3989219",
    "name": "(2020 BU9)",
    "designation": "2020 BU9",
    "nasa_jpl_url": "http://ssd.jpl.nasa.gov/sbdb.cgi?sstr=3989219",
    "absolute_magnitude_h": 22.537,
    "estimated_diameter": {
        "kilometers": {
            "estimated_diameter_min": 0.0826332771,
            "estimated_diameter_max": 0.1847736248
        },
        "meters": {
            "estimated_diameter_min": 82.6332771196,
            "estimated_diameter_max": 184.7736248431
        },
        "miles": {
            "estimated_diameter_min": 0.051345922,
            "estimated_diameter_max": 0.114812972
        },
        "feet": {
            "estimated_diameter_min": 271.1065609052,
            "estimated_diameter_max": 606.2126993301
        }
    },
    "is_potentially_hazardous_asteroid": false,
    "close_approach_data": [
        {
            "close_approach_date": "2013-09-17",
            "close_approach_date_full": "2013-Sep-17 11:46",
            "epoch_date_close_approach": 1379418360000,
            "relative_velocity": {
                "kilometers_per_second": "18.5499971428",
                "kilometers_per_hour": "66779.9897140292",
                "miles_per_hour": "41494.4886086978"
            },
            "miss_distance": {
                "astronomical": "0.3166360819",
                "lunar": "123.1714358591",
                "kilometers": "47368083.417385553",
                "miles": "29433162.2016965114"
            },
            "orbiting_body": "Earth"
        },
        {
            "close_approach_date": "2016-03-12",
            "close_approach_date_full": "2016-Mar-12 21:00",
            "epoch_date_close_approach": 1457816400000,
            "relative_velocity": {
                "kilometers_per_second": "22.0803361669",
                "kilometers_per_hour": "79489.2102008717",
                "miles_per_hour": "49391.5039717583"
            },
            "miss_distance": {
                "astronomical": "0.4490859478",
                "lunar": "174.6944336942",
                "kilometers": "67182301.237811186",
                "miles": "41745146.2410229268"
            },
            "orbiting_body": "Earth"
        },
        {
            "close_approach_date": "2020-08-01",
            "close_approach_date_full": "2020-Aug-01 11:07",
            "epoch_date_close_approach": 1596280020000,
            "relative_velocity": {
                "kilometers_per_second": "10.6744338378",
                "kilometers_per_hour": "38427.9618160728",
                "miles_per_hour": "23877.6410517703"
            },
            "miss_distance": {
                "astronomical": "0.1594481192",
                "lunar": "62.0253183688",
                "kilometers": "23853099.007826104",
                "miles": "14821628.4354200752"
            },
            "orbiting_body": "Earth"
        },
        {
            "close_approach_date": "2026-11-19",
            "close_approach_date_full": "2026-Nov-19 06:43",
            "epoch_date_close_approach": 1795070580000,
            "relative_velocity": {
                "kilometers_per_second": "7.6398016734",
                "kilometers_per_hour": "27503.2860243993",
                "miles_per_hour": "17089.4723633274"
            },
            "miss_distance": {
                "astronomical": "0.0146728132",
                "lunar": "5.7077243348",
                "kilometers": "2195021.601627884",
                "miles": "1363923.1772934392"
            },
            "orbiting_body": "Mars"
        }
    ],
    "orbital_data": {
        "orbit_id": "1",
        "orbit_determination_date": "2020-01-27 07:12:03",
        "first_observation_date": "2020-01-21",
        "last_observation_date": "2020-01-27",
        "data_arc_in_days": 6,
        "observations_used": 30,
        "orbit_uncertainty": "7",
        "minimum_orbit_intersection": ".139005",
        "jupiter_tisserand_invariant": "5.082",
        "epoch_osculation": "2459000.5",
        "eccentricity": ".345309369989786",
        "semi_major_axis": "1.243280138091956",
        "inclination": "12.15625822820496",
        "ascending_node_longitude": "294.9468695278508",
        "orbital_period": "506.3512895769482",
        "perihelion_distance": ".8139638568866084",
        "perihelion_argument": "334.4377156682919",
        "aphelion_distance": "1.672596419297303",
        "perihelion_time": "2459033.794266946294",
        "mean_anomaly": "336.3288129261405",
        "mean_motion": ".7109688617575689",
        "equinox": "J2000",
        "orbit_class": {
            "orbit_class_type": "APO",
            "orbit_class_description": "Near-Earth asteroid orbits which cross the Earth’s orbit similar to that of 1862 Apollo",
            "orbit_class_range": "a (semi-major axis) > 1.0 AU; q (perihelion) < 1.017 AU"
        }
    },
    "is_sentry_object": false
}